[Satellite]
VERSION=1.1
NAME=FAST
NICKNAME=FAST
TLE1=1 24285U 96049A   11060.17651777  .00001978  00000-0  16997-3 0  1091
TLE2=2 24285  82.9640 105.5941 1988634  62.8766 316.1051 11.28427330588606
